STARLETTE               
1 07646U 75010A   24153.53334872 -.00000135  00000+0  79389-5 0  9996
2 07646  49.8209 167.7907 0205665 119.7399 242.4129 13.82328450491393
LAGEOS 1                
1 08820U 76039A   24153.54511802  .00000001  00000+0  00000+0 0  9993
2 08820 109.8553 283.9142 0044237 102.2546 259.5250  6.38664980865524
AJISAI (EGS)            
1 16908U 86061A   24153.57764965 -.00000094  00000+0  24358-4 0  9998
2 16908  50.0098 280.1106 0011433  83.1611  49.4231 12.44505726387544
COSMOS 1989 (ETALON 1)  
1 19751U 89001C   24152.49148168  .00000025  00000+0  00000+0 0  9991
2 19751  64.5480  97.8129 0023853 215.9532 244.6951  2.13156072275457
COSMOS 2024 (ETALON 2)  
1 20026U 89039C   24152.72717127 -.00000035  00000+0  00000+0 0  9994
2 20026  65.3450 336.1225 0019381 217.1047  94.0916  2.13204324272585
LAGEOS 2                
1 22195U 92070B   24153.34417412 -.00000009  00000+0  00000+0 0  9996
2 22195  52.6797  18.0012 0137584 220.7862 336.5470  6.47293386747132
STELLA                  
1 22824U 93061B   24153.60838187 -.00000027  00000+0  79116-5 0  9991
2 22824  98.8792 199.6500 0005436 238.8959 241.9023 14.27425127598407
LARETS                  
1 27944U 03042F   24153.59180870  .00000133  00000+0  35084-4 0  9998
2 27944  98.3130 293.7234 0011865 199.1506 160.9252 14.63514920104290
LARES                   
1 38077U 12006A   24153.35810997 -.00000022  00000+0  10170-3 0  9997
2 38077  69.4887 126.1911 0008203   9.6030 350.5151 12.54931782563490
LARES-2                 
1 53105U 22080A   24149.13679489  .00000017  00000+0  00000+0 0  9999
2 53105  70.1370 202.5597 0004995 143.1766 216.9402  6.38965209 43749
